     2.100          NAVIGATION                              RINEX VERSION / TYPE
fic2rin                                 02/10/2009 01:32:06 PGM / RUN BY / DATE
                                                            END OF HEADER
11 09  2 10  0  0  0.0  .800797715783D-05 -.113686837722D-11  .000000000000D+00
     .590000000000D+02  .622812500000D+02  .672278003077D-08  .836279587956D+00
     .324100255966D-05  .919639039785D-02  .484660267830D-05  .515366431808D+04
     .172800000000D+06 -.428408384323D-07  .127757579298D+01  .122934579849D-06
     .889539800698D+00  .247406250000D+03  .684008509071D+00 -.935896126687D-08
     .413231498465D-09  .100000000000D+01  .151800000000D+04  .000000000000D+00
     .240000000000D+01  .000000000000D+00 -.121071934700D-07  .590000000000D+02
     .165606000000D+06  .400000000000D+01
12 09  2 10  0  0  0.0 -.317575875670D-03  .375166564481D-11  .000000000000D+00
     .620000000000D+02 -.149343750000D+03  .444875673715D-08  .116049924322D+01
    -.781938433647D-05  .321617256850D-02  .700727105141D-05  .515372642326D+04
     .172800000000D+06  .128522515297D-06 -.605365789904D+00 -.149011611938D-07
     .966239692973D+00  .246125000000D+03 -.811078673551D+00 -.824677208259D-08
    -.503235247482D-09  .100000000000D+01  .151800000000D+04  .000000000000D+00
     .240000000000D+01  .000000000000D+00 -.116415321827D-07  .620000000000D+02
     .165606000000D+06  .400000000000D+01
13 09  2 10  0  0  0.0  .288031529635D-03  .125055521494D-11  .000000000000D+00
     .710000000000D+02  .117281250000D+03  .358086344305D-08 -.281330311780D+01
     .618398189545D-05  .376282364596D-02  .114310532808D-04  .515375748062D+04
     .172800000000D+06  .521540641785D-07 -.265014493089D+01  .167638063431D-07
     .995494724957D+00  .179562500000D+03  .150608486093D+01 -.748924052836D-08
     .188222125921D-09  .100000000000D+01  .151800000000D+04  .000000000000D+00
     .240000000000D+01  .000000000000D+00 -.111758708954D-07  .710000000000D+02
     .165606000000D+06  .400000000000D+01
14 09  2 10  0  0  0.0 -.156393740326D-03  .534328137292D-11  .000000000000D+00
     .102000000000D+03  .101593750000D+03  .363515141865D-08  .307701029463D+01
     .537745654583D-05  .440545543097D-02  .120364129543D-04  .515357586479D+04
     .172800000000D+06  .298023223877D-07 -.266897513110D+01 -.894069671631D-07
     .989079308380D+00  .159093750000D+03 -.210038610108D+01 -.751424156975D-08
     .130362572982D-09  .100000000000D+01  .151800000000D+04  .000000000000D+00
     .240000000000D+01  .000000000000D+00 -.931322574615D-08  .102000000000D+03
     .165606000000D+06  .400000000000D+01
15 09  2 10  0  0  0.0 -.254499725997D-03 -.522959453519D-11  .000000000000D+00
     .740000000000D+02  .119562500000D+03  .437375361297D-08 -.272355258601D+01
     .619329512119D-05  .141303532291D-02  .131223350763D-04  .515358674049D+04
     .172800000000D+06 -.931322574615D-08 -.271806070961D+01  .242143869400D-07
     .957225775473D+00  .124156250000D+03 -.720216742410D+00 -.791032949697D-08
     .116076263614D-09  .100000000000D+01  .151800000000D+04  .000000000000D+00
     .240000000000D+01  .000000000000D+00 -.977888703346D-08  .740000000000D+02
     .165606000000D+06  .400000000000D+01
16 09  2 10  0  0  0.0  .758036039770D-04 -.284217094304D-11  .000000000000D+00
     .380000000000D+02 -.134562500000D+03  .427017787005D-08 -.135774702162D+01
    -.705942511559D-05  .506896036677D-02  .724196434021D-05  .515376480293D+04
     .172800000000D+06 -.109896063805D-06 -.588585740639D+00 -.391155481339D-07
     .967776700538D+00  .246093750000D+03 -.386388434926D+00 -.811105214359D-08
    -.337514058815D-09  .100000000000D+01  .151800000000D+04  .000000000000D+00
     .240000000000D+01  .000000000000D+00 -.977888703346D-08  .380000000000D+02
     .165606000000D+06  .400000000000D+01
17 09  2 10  0  0  0.0  .465963967144D-04  .125055521494D-11  .000000000000D+00
     .540000000000D+02  .731250000000D+01  .409981363084D-08 -.244248032434D+01
     .312924385071D-06  .420334388036D-02  .139400362968D-04  .515364990616D+04
     .172800000000D+06 -.596046447754D-07  .452885453754D+00  .130385160446D-07
     .960056385905D+00  .110031250000D+03 -.274748257716D+01 -.771567853184D-08
     .639669501945D-09  .100000000000D+01  .151800000000D+04  .000000000000D+00
     .240000000000D+01  .000000000000D+00 -.102445483208D-07  .540000000000D+02
     .165606000000D+06  .400000000000D+01
18 09  2 10  0  0  0.0 -.848737545311D-04  .363797880709D-11  .000000000000D+00
     .280000000000D+02 -.560312500000D+02  .508878339683D-08 -.122984690276D+01
    -.287964940071D-05  .992512772791D-02  .933557748795D-05  .515375135040D+04
     .172800000000D+06  .253319740295D-06  .256364754562D+01 -.372529029846D-08
     .943917053797D+00  .189250000000D+03 -.243813963428D+01 -.825570102594D-08
    -.680385483644D-09  .100000000000D+01  .151800000000D+04  .000000000000D+00
     .240000000000D+01  .000000000000D+00 -.107102096081D-07  .280000000000D+02
     .165606000000D+06  .400000000000D+01
19 09  2 10  0  0  0.0  .326549634337D-04 -.568434188608D-12  .000000000000D+00
     .380000000000D+02  .116250000000D+02  .433589489314D-08  .309453200386D+01
     .702217221260D-06  .513891503215D-02  .123772770166D-04  .515379222870D+04
     .172800000000D+06 -.521540641785D-07  .509226507602D+00  .298023223877D-07
     .957746255393D+00  .137625000000D+03 -.388751676679D+00 -.783068332225D-08
     .571809532448D-09  .100000000000D+01  .151800000000D+04  .000000000000D+00
     .240000000000D+01  .000000000000D+00 -.144354999065D-07  .380000000000D+02
     .165606000000D+06  .400000000000D+01
20 09  2 10  0  0  0.0  .912277027965D-04 -.113686837722D-11  .000000000000D+00
     .600000000000D+02 -.524062500000D+02  .515450041992D-08 -.107977038971D+01
    -.270456075668D-05  .395698891953D-02  .875443220139D-05  .515367769432D+04
     .172800000000D+06 -.614672899246D-07  .250988799212D+01  .117346644402D-06
     .943468862511D+00  .204687500000D+03  .131417782924D+01 -.834927635230D-08
    -.661456123731D-09  .100000000000D+01  .151800000000D+04  .000000000000D+00
     .240000000000D+01  .000000000000D+00 -.651925802231D-08  .600000000000D+02
     .165606000000D+06  .400000000000D+01
21 09  2 10  0  0  0.0  .298018567264D-04 -.181898940355D-11  .000000000000D+00
     .750000000000D+02  .305625000000D+02  .584024326957D-08  .486778339815D-01
     .171922147274D-05  .146367996931D-01  .413879752159D-05  .515363205719D+04
     .172800000000D+06  .875443220139D-07  .150482444143D+01  .171363353729D-06
     .934143355163D+00  .284937500000D+03 -.264690148790D+01 -.900323216361D-08
     .318584698903D-09  .100000000000D+01  .151800000000D+04  .000000000000D+00
     .240000000000D+01  .000000000000D+00 -.116415321827D-07  .750000000000D+02
     .165606000000D+06  .400000000000D+01
22 09  2 10  0  0  0.0  .205370131880D-03 -.454747350886D-12  .000000000000D+00
     .630000000000D+02 -.590000000000D+02  .508092592667D-08 -.234987932154D+01
    -.302679836750D-05  .487773166969D-02  .942870974541D-05  .515366294479D+04
     .172800000000D+06  .614672899246D-07  .256956614058D+01 -.260770320892D-07
     .941580583445D+00  .186625000000D+03 -.182517787193D+01 -.820319883902D-08
    -.650741391705D-09  .100000000000D+01  .151800000000D+04  .000000000000D+00
     .240000000000D+01  .000000000000D+00 -.181607902050D-07  .630000000000D+02
     .165606000000D+06  .400000000000D+01
23 09  2 10  0  0  0.0  .386723782867D-03  .682121026330D-12  .000000000000D+00
     .220000000000D+02  .106531250000D+03  .407159816984D-08  .256324124938D+01
     .559911131859D-05  .578321074136D-02  .120047479868D-04  .515365200615D+04
     .172800000000D+06 -.707805156708D-07 -.269959966507D+01  .102445483208D-06
     .971124127744D+00  .156875000000D+03  .288102741957D+01 -.775175146299D-08
     .996470078407D-10  .100000000000D+01  .151800000000D+04  .000000000000D+00
     .240000000000D+01  .000000000000D+00 -.200234353542D-07  .220000000000D+02
     .165606000000D+06  .400000000000D+01
24 09  2 10  0  0  0.0  .164326746017D-03  .306954461848D-11  .000000000000D+00
     .104000000000D+03  .237187500000D+02  .544308386915D-08 -.132766953563D+01
     .115483999252D-05  .695569254458D-02  .439584255219D-05  .515365974808D+04
     .172800000000D+06 -.763684511185D-07  .153517284522D+01 -.124797224998D-06
     .950772107977D+00  .291062500000D+03 -.640047716922D+00 -.865928926558D-08
     .376801409577D-09  .100000000000D+01  .151800000000D+04  .000000000000D+00
     .340000000000D+01  .000000000000D+00 -.139698386192D-08  .104000000000D+03
     .165606000000D+06  .400000000000D+01
25 09  2 10  0  0  0.0  .232033897191D-03  .250111042988D-10  .000000000000D+00
     .660000000000D+02  .668125000000D+02  .481555773017D-08 -.808994944241D+00
     .359676778316D-05  .117990268627D-01  .181235373020D-05  .515366690636D+04
     .172800000000D+06 -.111758708954D-06 -.175195316496D+01 -.111758708954D-07
     .967991309158D+00  .350343750000D+03 -.122785121625D+01 -.872357765774D-08
     .284654714154D-09  .100000000000D+01  .151800000000D+04  .000000000000D+00
     .485000000000D+01  .000000000000D+00 -.745058059692D-08  .660000000000D+02
     .165606000000D+06  .400000000000D+01
26 09  2 10  0  0  0.0  .433712266386D-04  .295585778076D-11  .000000000000D+00
     .610000000000D+02  .126593750000D+03  .355014787791D-08  .212253696880D+01
     .624917447567D-05  .195667828666D-01  .133384019136D-04  .515364874268D+04
     .172800000000D+06 -.121071934700D-06 -.265226630693D+01 -.411644577980D-06
     .993370345542D+00  .135281250000D+03  .967808679928D+00 -.739280794012D-08
     .224652214809D-09  .100000000000D+01  .151800000000D+04  .000000000000D+00
     .240000000000D+01  .000000000000D+00 -.605359673500D-08  .610000000000D+02
     .165606000000D+06  .400000000000D+01
